$$SOE
2460147.500000000, A.D. 2023-Jul-22 00:00:00.0000, 3.692471789100722E+08, 2.950472287773894E+07, 3.371754523539681E+06,
2460154.500000000, A.D. 2023-Jul-29 00:00:00.0000, 3.691823123814773E+08, 4.131098129799882E+07, 4.136325279465526E+06,
2460161.500000000, A.D. 2023-Aug-05 00:00:00.0000, 3.687680306356812E+08, 5.307831053509339E+07, 4.896972091937613E+06,
2460168.500000000, A.D. 2023-Aug-12 00:00:00.0000, 3.680077839633487E+08, 6.479601456218284E+07, 5.653014740085796E+06,
2460175.500000000, A.D. 2023-Aug-19 00:00:00.0000, 3.669053569529223E+08, 7.645364141266468E+07, 6.403790109923963E+06,
2460182.500000000, A.D. 2023-Aug-26 00:00:00.0000, 3.654648515962907E+08, 8.804099249533480E+07, 7.148652733275045E+06,
2460189.500000000, A.D. 2023-Sep-02 00:00:00.0000, 3.636906703495088E+08, 9.954813069617379E+07, 7.886975248818234E+06,
2460196.500000000, A.D. 2023-Sep-09 00:00:00.0000, 3.615874992613891E+08, 1.109653872618265E+08, 8.618148781502023E+06,
2460203.500000000, A.D. 2023-Sep-16 00:00:00.0000, 3.591602914082988E+08, 1.222833674454349E+08, 9.341583223146625E+06,
2460210.500000000, A.D. 2023-Sep-23 00:00:00.0000, 3.564142511124855E+08, 1.334929552412707E+08, 1.005670740209813E+07,
2460217.500000000, A.D. 2023-Sep-30 00:00:00.0000, 3.533548186528748E+08, 1.445853184422688E+08, 1.076296927272805E+07,
2460224.500000000, A.D. 2023-Oct-07 00:00:00.0000, 3.499876531588827E+08, 1.555519135310948E+08, 1.145983629979332E+07,
2460231.500000000, A.D. 2023-Oct-14 00:00:00.0000, 3.463186147768189E+08, 1.663844871479555E+08, 1.214679567586092E+07,
2460238.500000000, A.D. 2023-Oct-21 00:00:00.0000, 3.423537493806935E+08, 1.770750757895212E+08, 1.282335421037368E+07,
2460245.500000000, A.D. 2023-Oct-28 00:00:00.0000, 3.380992744373713E+08, 1.876160060513308E+08, 1.348903820953223E+07,
2460252.500000000, A.D. 2023-Nov-04 00:00:00.0000, 3.335615648064773E+08, 1.979998946963366E+08, 1.414339340261669E+07,
2460259.500000000, A.D. 2023-Nov-11 00:00:00.0000, 3.287471386781639E+08, 2.082196480022751E+08, 1.478598485307902E+07,
2460266.500000000, A.D. 2023-Nov-18 00:00:00.0000, 3.236626438888304E+08, 2.182684603758805E+08, 1.541639683248515E+07,
2460273.500000000, A.D. 2023-Nov-25 00:00:00.0000, 3.183148447043207E+08, 2.281398123081515E+08, 1.603423265590945E+07,
2460280.500000000, A.D. 2023-Dec-02 00:00:00.0000, 3.127106091119944E+08, 2.378274677096722E+08, 1.663911447867663E+07,
2460287.500000000, A.D. 2023-Dec-09 00:00:00.0000, 3.068568967092617E+08, 2.473254706154955E+08, 1.723068304577893E+07,
2460294.500000000, A.D. 2023-Dec-16 00:00:00.0000, 3.007607474829116E+08, 2.566281413187211E+08, 1.780859737170081E+07,
2460301.500000000, A.D. 2023-Dec-23 00:00:00.0000, 2.944292718315630E+08, 2.657300726634414E+08, 1.837253437745051E+07,
2460308.500000000, A.D. 2023-Dec-30 00:00:00.0000, 2.878696404883634E+08, 2.746261275850707E+08, 1.892218869543432E+07,
2460315.500000000, A.D. 2024-Jan-06 00:00:00.0000, 2.810890725642605E+08, 2.833114355786720E+08, 1.945727261434101E+07,
2460322.500000000, A.D. 2024-Jan-13 00:00:00.0000, 2.740948248826768E+08, 2.917813863310465E+08, 1.997751572809687E+07,
2460329.500000000, A.D. 2024-Jan-20 00:00:00.0000, 2.668941838245089E+08, 3.000316236356732E+08, 2.048266443031429E+07,
2460336.500000000, A.D. 2024-Jan-27 00:00:00.0000, 2.594944576437783E+08, 3.080580402746188E+08, 2.097248149509481E+07,
2460343.500000000, A.D. 2024-Feb-03 00:00:00.0000, 2.519029688140133E+08, 3.158567729508053E+08, 2.144674570769499E+07,
2460350.500000000, A.D. 2024-Feb-10 00:00:00.0000, 2.441270466709698E+08, 3.234241970096545E+08, 2.190525149749115E+07,
2460357.500000000, A.D. 2024-Feb-17 00:00:00.0000, 2.361740204776547E+08, 3.307569209858251E+08, 2.234780856272219E+07,
2460364.500000000, A.D. 2024-Feb-24 00:00:00.0000, 2.280512129338076E+08, 3.378517810154397E+08, 2.277424148638457E+07,
2460371.500000000, A.D. 2024-Mar-02 00:00:00.0000, 2.197659341445036E+08, 3.447058351049147E+08, 2.318438933933634E+07,
2460378.500000000, A.D. 2024-Mar-09 00:00:00.0000, 2.113254761713053E+08, 3.513163572155318E+08, 2.357810525411288E+07,
2460385.500000000, A.D. 2024-Mar-16 00:00:00.0000, 2.027371085458544E+08, 3.576808313818488E+08, 2.395525595068018E+07,
2460392.500000000, A.D. 2024-Mar-23 00:00:00.0000, 1.940080746277548E+08, 3.637969469914731E+08, 2.431572131535678E+07,
2460399.500000000, A.D. 2024-Mar-30 00:00:00.0000, 1.851455865488901E+08, 3.696625952124776E+08, 2.465939423692335E+07,
2460406.500000000, A.D. 2024-Apr-06 00:00:00.0000, 1.761568189797125E+08, 3.752758632150571E+08, 2.498618040244067E+07,
2460413.500000000, A.D. 2024-Apr-13 00:00:00.0000, 1.670489052531522E+08, 3.806350270422089E+08, 2.529599779693905E+07,
2460420.500000000, A.D. 2024-Apr-20 00:00:00.0000, 1.578289348800817E+08, 3.857385458182518E+08, 2.558877621371555E+07,
2460427.500000000, A.D. 2024-Apr-27 00:00:00.0000, 1.485039509221737E+08, 3.905850567429236E+08, 2.586445686912960E+07,
2460434.500000000, A.D. 2024-May-04 00:00:00.0000, 1.390809472930088E+08, 3.951733701775353E+08, 2.612299205719697E+07,
2460441.500000000, A.D. 2024-May-11 00:00:00.0000, 1.295668662097893E+08, 3.995024647309294E+08, 2.636434481464702E+07,
2460448.500000000, A.D. 2024-May-18 00:00:00.0000, 1.199685958624882E+08, 4.035714823753710E+08, 2.658848859146118E+07,
2460455.500000000, A.D. 2024-May-25 00:00:00.0000, 1.102929683107834E+08, 4.073797235923674E+08, 2.679540692469516E+07,
2460462.500000000, A.D. 2024-Jun-01 00:00:00.0000, 1.005467576548578E+08, 4.109266424961945E+08, 2.698509310586095E+07,
2460469.500000000, A.D. 2024-Jun-08 00:00:00.0000, 9.073667871258946E+07, 4.142118419153481E+08, 2.715754981765056E+07,
2460476.500000000, A.D. 2024-Jun-15 00:00:00.0000, 8.086938658820222E+07, 4.172350689792959E+08, 2.731278874808159E+07,
2460483.500000000, A.D. 2024-Jun-22 00:00:00.0000, 7.095147611300528E+07, 4.199962123878698E+08, 2.745083037046039E+07,
2460490.500000000, A.D. 2024-Jun-29 00:00:00.0000, 6.098947902190323E+07, 4.224952995421564E+08, 2.757170393513611E+07,
2460497.500000000, A.D. 2024-Jul-06 00:00:00.0000, 5.098986149350734E+07, 4.247324910683523E+08, 2.767544722943676E+07,
2460504.500000000, A.D. 2024-Jul-13 00:00:00.0000, 4.095902399093833E+07, 4.267080755675266E+08, 2.776210615889746E+07,
2460511.500000000, A.D. 2024-Jul-20 00:00:00.0000, 3.090330140985048E+07, 4.284224657439228E+08, 2.783173442599177E+07,
2460518.500000000, A.D. 2024-Jul-27 00:00:00.0000, 2.082896286849458E+07, 4.298761949519104E+08, 2.788439328795424E+07,
2460525.500000000, A.D. 2024-Aug-03 00:00:00.0000, 1.074221140281147E+07, 4.310699137857839E+08, 2.792015133776739E+07,
2460532.500000000, A.D. 2024-Aug-10 00:00:00.0000, 6.491837224716687E+05, 4.320043867070126E+08, 2.793908429238817E+07,
2460539.500000000, A.D. 2024-Aug-17 00:00:00.0000, -9.444049934447164E+06, 4.326804887295866E+08, 2.794127478525046E+07,
2460546.500000000, A.D. 2024-Aug-24 00:00:00.0000, -1.953148582961329E+07, 4.330992021400293E+08, 2.792681215824482E+07,
2460553.500000000, A.D. 2024-Aug-31 00:00:00.0000, -2.960718652874321E+07, 4.332616131892871E+08, 2.789579223712724E+07,
2460560.500000000, A.D. 2024-Sep-07 00:00:00.0000, -3.966528012526492E+07, 4.331689088815920E+08, 2.784831706676608E+07,
2460567.500000000, A.D. 2024-Sep-14 00:00:00.0000, -4.969995880649204E+07, 4.328223748557114E+08, 2.778449467946741E+07,
2460574.500000000, A.D. 2024-Sep-21 00:00:00.0000, -5.970547879767271E+07, 4.322233947710146E+08, 2.770443911574307E+07,
2460581.500000000, A.D. 2024-Sep-28 00:00:00.0000, -6.967616217674720E+07, 4.313734479662594E+08, 2.760827047784346E+07,
2460588.500000000, A.D. 2024-Oct-05 00:00:00.0000, -7.960639689899959E+07, 4.302741053883142E+08, 2.749611467940620E+07,
2460595.500000000, A.D. 2024-Oct-12 00:00:00.0000, -8.949063540005879E+07, 4.289270267720441E+08, 2.736810316779843E+07,
2460602.500000000, A.D. 2024-Oct-19 00:00:00.0000, -9.932339353283514E+07, 4.273339587996137E+08, 2.722437275727481E+07,
2460609.500000000, A.D. 2024-Oct-26 00:00:00.0000, -1.090992498759418E+08, 4.254967334346058E+08, 2.706506551012969E+07,
2460616.500000000, A.D. 2024-Nov-02 00:00:00.0000, -1.188128451618505E+08, 4.234172662798511E+08, 2.689032862993005E+07,
2460623.500000000, A.D. 2024-Nov-09 00:00:00.0000, -1.284588817334752E+08, 4.210975549774288E+08, 2.670031435951611E+07,
2460630.500000000, A.D. 2024-Nov-16 00:00:00.0000, -1.380321230082241E+08, 4.185396776489571E+08, 2.649517988128665E+07,
2460637.500000000, A.D. 2024-Nov-23 00:00:00.0000, -1.475273929072733E+08, 4.157457913240783E+08, 2.627508721127623E+07,
2460644.500000000, A.D. 2024-Nov-30 00:00:00.0000, -1.569395750463085E+08, 4.127181303121753E+08, 2.604020306435308E+07,
2460651.500000000, A.D. 2024-Dec-07 00:00:00.0000, -1.662636112729769E+08, 4.094590049356939E+08, 2.579069868640712E+07,
2460658.500000000, A.D. 2024-Dec-14 00:00:00.0000, -1.754945002446768E+08, 4.059708018478858E+08, 2.552674981674001E+07,
2460665.500000000, A.D. 2024-Dec-21 00:00:00.0000, -1.846272983686379E+08, 4.022559846939082E+08, 2.524853689186570E+07,
2460672.500000000, A.D. 2024-Dec-28 00:00:00.0000, -1.936571211332015E+08, 3.983170921438086E+08, 2.495624506717727E+07,
2460679.500000000, A.D. 2025-Jan-04 00:00:00.0000, -2.025791422378050E+08, 3.941567356688170E+08, 2.465006401258251E+07,
2460686.500000000, A.D. 2025-Jan-11 00:00:00.0000, -2.113885923480426E+08, 3.897775987207525E+08, 2.433018778492260E+07,
2460693.500000000, A.D. 2025-Jan-18 00:00:00.0000, -2.200807583949424E+08, 3.851824363946237E+08, 2.399681478611776E+07,
2460700.500000000, A.D. 2025-Jan-25 00:00:00.0000, -2.286509831771462E+08, 3.803740750966700E+08, 2.365014774585301E+07,
2460707.500000000, A.D. 2025-Feb-01 00:00:00.0000, -2.370946650793075E+08, 3.753554121845232E+08, 2.329039370891055E+07,
2460714.500000000, A.D. 2025-Feb-08 00:00:00.0000, -2.454072578510914E+08, 3.701294155963130E+08, 2.291776402335019E+07,
2460721.500000000, A.D. 2025-Feb-15 00:00:00.0000, -2.535842704203506E+08, 3.646991234457456E+08, 2.253247432519020E+07,
$$EOE